QIANFAN-1               
1 60379U 24140A   26020.94673029  .00000215  00000+0  31383-3 0  9994
2 60379  88.9777 295.2288 0019122  99.1898 261.1418 13.50988584 72641
QIANFAN-2               
1 60380U 24140B   26020.90151981  .00000276  00000+0  40881-3 0  9990
2 60380  88.9763 295.0674 0014602  74.0580 286.2179 13.50992799 72693
QIANFAN-3               
1 60381U 24140C   26020.90967971  .00000252  00000+0  37053-3 0  9996
2 60381  88.9756 295.1962 0015681  85.1711 275.1230 13.50993209 72607
QIANFAN-4               
1 60382U 24140D   26020.88497441  .00000217  00000+0  31669-3 0  9992
2 60382  88.9781 295.1063 0014825  76.4013 283.8788 13.50988681 72720
QIANFAN-5               
1 60383U 24140E   26020.93444316  .00000225  00000+0  32977-3 0  9994
2 60383  88.9756 295.2191 0016848  95.3705 264.9369 13.50990790 72595
QIANFAN-6               
1 60384U 24140F   26020.95501434  .00000206  00000+0  30060-3 0  9992
2 60384  88.9783 294.9737 0014924  81.4912 278.7930 13.50990834 72795
QIANFAN-7               
1 60385U 24140G   26020.92404429  .00001287  00000+0  51590-3 0  9997
2 60385  88.9792 289.1256 0012932 275.1114  84.8604 14.27719156 75980
QIANFAN-8               
1 60386U 24140H   26020.88922788  .00000226  00000+0  33158-3 0  9998
2 60386  88.9784 295.2185 0018376  83.8783 276.4461 13.50992264 72632
